NORAD_CAT_ID,OBJECT_NAME,OBJECT_TYPE,EPOCH,MEAN_MOTION,ECCENTRICITY,INCLINATION,RA_OF_ASC_NODE,ARG_OF_PERICENTER,MEAN_ANOMALY,BSTAR,MEAN_MOTION_DOT,MEAN_MOTION_DDOT,TLE_LINE0,TLE_LINE1,TLE_LINE2,SEMIMAJOR_AXIS,PERIOD,APOGEE,PERIGEE,DECAYED
51141.0,STARLINK-3179,PAYLOAD,2022-11-22 10:49:17,15.08847158,0.0003153,53.2157,300.6807,30.2044,329.9129,0.00015976,2.255e-05,0.0,0 STARLINK-3179,1 51141U 22005AP  22326.45089262  .00002255  00000-0  15976-3 0  9997,2 51141  53.2157 300.6807 0003153  30.2044 329.9129 15.08847158 47098,6917.859,95.437,541.905,537.5419999999998,0.0
51141.0,STARLINK-3179,PAYLOAD,2022-11-23 04:18:32,15.08840748,0.0003156,53.2158,297.4097,32.0781,328.0402,0.00023809,3.503e-05,0.0,0 STARLINK-3179,1 51141U 22005AP  22327.17953812  .00003503  00000-0  23809-3 0  9999,2 51141  53.2158 297.4097 0003156  32.0781 328.0402 15.08840748 48312,6917.878000000002,95.438,541.9259999999998,537.56,0.0
51141.0,STARLINK-3179,PAYLOAD,2022-11-23 10:40:05,15.08833048,0.000329,53.216,296.2211,29.9938,330.1242,9.3131e-05,1.194e-05,0.0,0 STARLINK-3179,1 51141U 22005AP  22327.44450349  .00001194  00000-0  93131-4 0  9996,2 51141  53.2160 296.2211 0003290  29.9938 330.1242 15.08833048 48353,6917.901999999999,95.438,542.043,537.491,0.0
51141.0,STARLINK-3179,PAYLOAD,2022-11-23 15:26:14,15.08835369,0.0003261,53.2158,295.3298,29.8824,330.2354,8.2869e-05,1.03e-05,0.0,0 STARLINK-3179,1 51141U 22005AP  22327.64322284  .00001030  00000-0  82869-4 0  9999,2 51141  53.2158 295.3298 0003261  29.8824 330.2354 15.08835369 47279,6917.895,95.438,542.015,537.504,0.0
51141.0,STARLINK-3179,PAYLOAD,2022-11-24 04:09:19,15.088452300000002,0.0003216,53.2159,292.9498,31.3743,328.744,0.0001146,1.536e-05,0.0,0 STARLINK-3179,1 51141U 22005AP  22328.17313834  .00001536  00000-0  11460-3 0  9998,2 51141  53.2159 292.9498 0003216  31.3743 328.7440 15.08845230 48461,6917.864000000001,95.437,541.9540000000002,537.505,0.0
51141.0,STARLINK-3179,PAYLOAD,2022-11-24 08:55:28,15.08848402,0.0003225,53.2159,292.0577,31.9876,328.1311,0.00016841,2.393e-05,0.0,0 STARLINK-3179,1 51141U 22005AP  22328.37185684  .00002393  00000-0  16841-3 0  9990,2 51141  53.2159 292.0577 0003225  31.9876 328.1311 15.08848402 47388,6917.855,95.437,541.951,537.489,0.0
51141.0,STARLINK-3179,PAYLOAD,2022-11-25 04:00:06,15.08842776,0.0003221,53.216,288.4891,33.2676,326.8518,9.1647e-05,1.17e-05,0.0,0 STARLINK-3179,1 51141U 22005AP  22329.16673915  .00001170  00000-0  91647-4 0  9997,2 51141  53.2160 288.4891 0003221  33.2676 326.8518 15.08842776 48616,6917.871999999999,95.437,541.965,537.509,0.0
51141.0,STARLINK-3179,PAYLOAD,2022-11-25 08:46:16,15.08835825,0.0003238,53.216,287.5971,40.8901,319.2333,0.00050157,7.703e-05,0.0,0 STARLINK-3179,1 51141U 22005AP  22329.36546441  .00007703  00000-0  50157-3 0  9990,2 51141  53.2160 287.5971 0003238  40.8901 319.2333 15.08835825 47536,6917.893,95.438,541.998,537.518,0.0
51141.0,STARLINK-3179,PAYLOAD,2022-11-26 08:37:01,15.08854571,0.0003242,53.2161,283.1362,35.1135,325.0071,0.00020908,3.042e-05,0.0,0 STARLINK-3179,1 51141U 22005AP  22330.35905088  .00003042  00000-0  20908-3 0  9990,2 51141  53.2161 283.1362 0003242  35.1135 325.0071 15.08854571 48796,6917.8359999999975,95.437,541.944,537.4580000000002,0.0
51141.0,STARLINK-3179,PAYLOAD,2022-11-27 02:06:16,15.08841948,0.0003067,53.2159,279.8645,35.5308,324.5888,-2.4397e-05,-6.77e-06,0.0,0 STARLINK-3179,1 51141U 22005AP  22331.08769085 -.00000677  00000-0 -24397-4 0  9996,2 51141  53.2159 279.8645 0003067  35.5308 324.5888 15.08841948 48907,6917.874,95.437,541.861,537.618,0.0
51141.0,STARLINK-3179,PAYLOAD,2022-11-27 08:27:49,15.08839009,0.0003181,53.2165,278.6756,34.0223,326.0973,-8.0061e-06,-4.16e-06,0.0,0 STARLINK-3179,1 51141U 22005AP  22331.35265468 -.00000416  00000-0 -80061-5 0  9994,2 51141  53.2165 278.6756 0003181  34.0223 326.0973 15.08839009 47839,6917.8830000000025,95.438,541.9490000000002,537.548,0.0
51141.0,STARLINK-3179,PAYLOAD,2022-11-27 21:10:55,15.08830257,0.0003111,53.2166,276.2963,35.5748,324.5451,-6.789e-05,-1.369e-05,0.0,0 STARLINK-3179,1 51141U 22005AP  22331.88258257 -.00001369  00000-0 -67890-4 0  9992,2 51141  53.2166 276.2963 0003111  35.5748 324.5451 15.08830257 47914,6917.91,95.438,541.927,537.623,0.0
51141.0,STARLINK-3179,PAYLOAD,2022-11-28 03:32:27,15.08838068,0.0003188,53.2164,275.1072,34.5212,325.5987,-4.1529e-05,-9.5e-06,0.0,0 STARLINK-3179,1 51141U 22005AP  22332.14753782 -.00000950  00000-0 -41529-4 0  9991,2 51141  53.2164 275.1072 0003188  34.5212 325.5987 15.08838068 49061,6917.886,95.438,541.957,537.5459999999998,0.0
51141.0,STARLINK-3179,PAYLOAD,2022-11-28 08:18:36,15.08841336,0.0003215,53.2165,274.2151,34.3764,325.7435,-1.0208e-05,-4.51e-06,0.0,0 STARLINK-3179,1 51141U 22005AP  22332.34625506 -.00000451  00000-0 -10208-4 0  9991,2 51141  53.2165 274.2151 0003215  34.3764 325.7435 15.08841336 47982,6917.876,95.437,541.965,537.5169999999998,0.0
51141.0,STARLINK-3179,PAYLOAD,2022-11-29 04:58:37,15.08833796,0.0003172,53.2166,270.3495,35.1104,325.0097,9.2796e-05,1.188e-05,0.0,0 STARLINK-3179,1 51141U 22005AP  22333.20737862  .00001188  00000-0  92796-4 0  9994,2 51141  53.2166 270.3495 0003172  35.1104 325.0097 15.08833796 49227,6917.899,95.438,541.9590000000002,537.57,0.0
51141.0,STARLINK-3179,PAYLOAD,2022-11-29 12:55:32,15.08842357,0.0003204,53.2167,268.8627,34.91,325.2101,0.00013953,1.933e-05,0.0,0 STARLINK-3179,1 51141U 22005AP  22333.53857296  .00001933  00000-0  13953-3 0  9999,2 51141  53.2167 268.8627 0003204  34.9100 325.2101 15.08842357 49272,6917.873000000001,95.437,541.955,537.5219999999998,0.0
51141.0,STARLINK-3179,PAYLOAD,2022-11-30 01:38:37,15.08876219,0.0002968,53.2168,266.4836,34.1841,325.9342,-0.0004994,-8.236e-05,0.0,0 STARLINK-3179,1 51141U 22005AP  22334.06849162 -.00008236  00000-0 -49940-3 0  9991,2 51141  53.2168 266.4836 0002968  34.1841 325.9342 15.08876219 49356,6917.77,95.435,541.688,537.581,0.0
51141.0,STARLINK-3179,PAYLOAD,2022-11-30 04:49:25,15.08822622,0.0003206,53.2168,265.8893,31.601,328.5174,3.8705000000000005e-06,-2.27e-06,0.0,0 STARLINK-3179,1 51141U 22005AP  22334.20099333 -.00000227  00000-0  38705-5 0  9994,2 51141  53.2168 265.8893 0003206  31.6010 328.5174 15.08822622 49371,6917.934,95.439,542.016,537.581,0.0
51141.0,STARLINK-3179,PAYLOAD,2022-11-30 12:46:21,15.08829929,0.0003228,53.2169,264.4026,34.9787,325.1416,3.4703e-07,-2.83e-06,0.0,0 STARLINK-3179,1 51141U 22005AP  22334.53219121 -.00000283  00000-0  34703-6 0  9996,2 51141  53.2169 264.4026 0003228  34.9787 325.1416 15.08829929 48318,6917.911,95.438,542.009,537.543,0.0
51141.0,STARLINK-3179,PAYLOAD,2022-12-01 01:29:25,15.08836536,0.0003166,53.2166,262.0231,31.1258,328.9921,9.9805e-05,1.3e-05,0.0,0 STARLINK-3179,1 51141U 22005AP  22335.06210567  .00001300  00000-0  99805-4 0  9992,2 51141  53.2166 262.0231 0003166  31.1258 328.9921 15.08836536 49506,6917.891,95.438,541.946,537.566,0.0
51141.0,STARLINK-3179,PAYLOAD,2022-12-01 04:40:11,15.08843327,0.000321,53.2167,261.4287,34.6887,325.4314,8.5327e-05,1.07e-05,0.0,0 STARLINK-3179,1 51141U 22005AP  22335.19458262  .00001070  00000-0  85327-4 0  9990,2 51141  53.2167 261.4287 0003210  34.6887 325.4314 15.08843327 48410,6917.87,95.437,541.956,537.515,0.0
51141.0,STARLINK-3179,PAYLOAD,2022-12-02 01:20:13,15.08835574,0.0003219,53.217,257.5628,36.56,323.5611,6.1633e-05,6.92e-06,0.0,0 STARLINK-3179,1 51141U 22005AP  22336.05570866  .00000692  00000-0  61633-4 0  9994,2 51141  53.2170 257.5628 0003219  36.5600 323.5611 15.08835574 49653,6917.894,95.438,541.986,537.5319999999998,0.0
51141.0,STARLINK-3179,PAYLOAD,2022-12-03 04:21:46,15.08848278,0.0003238,53.2161,252.5072,38.3473,321.7749,9.0805e-05,1.157e-05,0.0,0 STARLINK-3179,1 51141U 22005AP  22337.18178351  .00001157  00000-0  90805-4 0  9992,2 51141  53.2161 252.5072 0003238  38.3473 321.7749 15.08848278 49826,6917.855,95.437,541.96,537.48,0.0
51141.0,STARLINK-3179,PAYLOAD,2022-12-04 02:37:10,15.0883644,0.0003219,53.2161,248.3437,37.1237,322.9978,0.00018047,2.585e-05,0.0,0 STARLINK-3179,1 51141U 22005AP  22338.10914613  .00002585  00000-0  18047-3 0  9997,2 51141  53.2161 248.3437 0003219  37.1237 322.9978 15.08836440 49968,6917.891,95.438,541.9830000000002,537.529,0.0
51141.0,STARLINK-3179,PAYLOAD,2022-12-04 04:12:33,15.08832763,0.0003188999999999,53.2161,248.0463,37.5245,322.5969,0.00022738,3.331e-05,0.0,0 STARLINK-3179,1 51141U 22005AP  22338.17538711  .00003331  00000-0  22738-3 0  9997,2 51141  53.2161 248.0463 0003189  37.5245 322.5969 15.08832763 48861,6917.903,95.438,541.974,537.561,0.0
51141.0,STARLINK-3179,PAYLOAD,2022-12-05 10:24:52,15.08851153,0.0003309,53.2163,242.3971,38.8223,321.3007,3.04e-05,1.95e-06,0.0,0 STARLINK-3179,1 51141U 22005AP  22339.43393884  .00000195  00000-0  30400-4 0  9998,2 51141  53.2163 242.3971 0003309  38.8223 321.3007 15.08851153 50168,6917.846,95.437,542.0,537.422,0.0
51141.0,STARLINK-3179,PAYLOAD,2022-12-06 10:15:39,15.08847995,0.0003281,53.216,237.9365,37.6452,322.4769,4.2634e-05,3.9e-06,0.0,0 STARLINK-3179,1 51141U 22005AP  22340.42753583  .00000390  00000-0  42634-4 0  9994,2 51141  53.2160 237.9365 0003281  37.6452 322.4769 15.08847995 49201,6917.856,95.437,541.991,537.451,0.0
51141.0,STARLINK-3179,PAYLOAD,2022-12-07 03:44:54,15.08827764,0.0003284,53.2163,234.6657,41.6694,318.4548,0.00010352,1.359e-05,0.0,0 STARLINK-3179,1 51141U 22005AP  22341.15618699  .00001359  00000-0  10352-3 0  9990,2 51141  53.2163 234.6657 0003284  41.6694 318.4548 15.08827764 50426,6917.918000000002,95.438,542.055,537.511,0.0
51141.0,STARLINK-3179,PAYLOAD,2022-12-07 10:06:26,15.08839007,0.0003201,53.2159,233.4757,36.7816,323.3395,-3.3937e-05,-8.29e-06,0.0,0 STARLINK-3179,1 51141U 22005AP  22341.42114327 -.00000829  00000-0 -33937-4 0  9997,2 51141  53.2159 233.4757 0003201  36.7816 323.3395 15.08839007 50461,6917.8830000000025,95.438,541.9630000000002,537.534,0.0
